start=new Date('2022-12-23T00:00:00.000Z').valueOf();
sats=[{"TIME_SYSTEM":"UTC","CLASSIFICATION_TYPE":"U","OBJECT_NAME":"STARLINK-2286","MEAN_ANOMALY":"276.7548","EPOCH":"2022-12-22T21:00:41.886720","BSTAR":"0.00011221000000","OBJECT_ID":"2021-024BJ","ELEMENT_SET_NO":"999","REF_FRAME":"TEME","SITE":"AFETR","OBJECT_TYPE":"PAYLOAD","TLE_LINE2":"2 48033  53.0534 196.6042 0001115  83.3568 276.7548 15.06379766 97868","PERIOD":"95.593","COUNTRY_CODE":"US","ECCENTRICITY":"0.00011150","ARG_OF_PERICENTER":"83.3568","APOAPSIS":"548.048","REV_AT_EPOCH":"9786","LAUNCH_DATE":"2021-03-24","MEAN_MOTION_DOT":"0.00001390","NORAD_CAT_ID":"48033","FILE":"3719655","SEMIMAJOR_AXIS":"6925.411","EPHEMERIS_TYPE":"0","RA_OF_ASC_NODE":"196.6042","RCS_SIZE":"LARGE","PERIAPSIS":"546.503","CENTER_NAME":"EARTH","TLE_LINE1":"1 48033U 21024BJ  22356.87548480  .00001390  00000-0  11221-3 0  9992","INCLINATION":"53.0534","MEAN_ELEMENT_THEORY":"SGP4","GP_ID":"221235287","DECAY_DATE":null,"MEAN_MOTION":"15.06379766","MEAN_MOTION_DDOT":"0.0000000000000"},{"LAUNCH_DATE":"2021-03-24","REV_AT_EPOCH":"9783","FILE":"3719655","SEMIMAJOR_AXIS":"6925.357","NORAD_CAT_ID":"48034","MEAN_MOTION_DOT":"0.00003004","COUNTRY_CODE":"US","ECCENTRICITY":"0.00013120","APOAPSIS":"548.131","ARG_OF_PERICENTER":"83.6382","TLE_LINE1":"1 48034U 21024BK  22356.69486413  .00003004  00000-0  22048-3 0  9993","DECAY_DATE":null,"GP_ID":"221234035","MEAN_MOTION":"15.06397152","MEAN_ELEMENT_THEORY":"SGP4","INCLINATION":"53.0520","MEAN_MOTION_DDOT":"0.0000000000000","EPHEMERIS_TYPE":"0","RA_OF_ASC_NODE":"197.4101","CENTER_NAME":"EARTH","PERIAPSIS":"546.314","RCS_SIZE":"LARGE","BSTAR":"0.00022048000000","OBJECT_ID":"2021-024BK","REF_FRAME":"TEME","ELEMENT_SET_NO":"999","OBJECT_NAME":"STARLINK-2288","CLASSIFICATION_TYPE":"U","TIME_SYSTEM":"UTC","MEAN_ANOMALY":"276.4757","EPOCH":"2022-12-22T16:40:36.260832","TLE_LINE2":"2 48034  53.0520 197.4101 0001312  83.6382 276.4757 15.06397152 97830","PERIOD":"95.592","SITE":"AFETR","OBJECT_TYPE":"PAYLOAD"},{"SITE":"AFETR","OBJECT_TYPE":"PAYLOAD","PERIOD":"95.592","TLE_LINE2":"2 48036  53.0531 197.3748 0001495  70.5212 289.5939 15.06394881 97832","MEAN_ANOMALY":"289.5939","CLASSIFICATION_TYPE":"U","TIME_SYSTEM":"UTC","OBJECT_NAME":"STARLINK-2295","EPOCH":"2022-12-22T16:51:12.486240","BSTAR":"-0.00000437030000","ELEMENT_SET_NO":"999","REF_FRAME":"TEME","OBJECT_ID":"2021-024BM","EPHEMERIS_TYPE":"0","RCS_SIZE":"LARGE","PERIAPSIS":"546.194","CENTER_NAME":"EARTH","RA_OF_ASC_NODE":"197.3748","INCLINATION":"53.0531","GP_ID":"221234285","DECAY_DATE":null,"MEAN_MOTION":"15.06394881","MEAN_ELEMENT_THEORY":"SGP4","TLE_LINE1":"1 48036U 21024BM  22356.70222785 -.00000347  00000-0 -43703-5 0  9999","MEAN_MOTION_DDOT":"0.0000000000000","ECCENTRICITY":"0.00014950","COUNTRY_CODE":"US","ARG_OF_PERICENTER":"70.5212","APOAPSIS":"548.265","MEAN_MOTION_DOT":"-0.00000347","NORAD_CAT_ID":"48036","FILE":"3719655","SEMIMAJOR_AXIS":"6925.364","REV_AT_EPOCH":"9783","LAUNCH_DATE":"2021-03-24"},{"ARG_OF_PERICENTER":"100.1258","APOAPSIS":"548.286","ECCENTRICITY":"0.00015500","COUNTRY_CODE":"US","MEAN_MOTION_DOT":"0.00004149","NORAD_CAT_ID":"48092","FILE":"3719655","SEMIMAJOR_AXIS":"6925.348","REV_AT_EPOCH":"9669","LAUNCH_DATE":"2021-04-07","RCS_SIZE":"LARGE","CENTER_NAME":"EARTH","PERIAPSIS":"546.139","RA_OF_ASC_NODE":"321.7326","EPHEMERIS_TYPE":"0","MEAN_MOTION_DDOT":"0.0000000000000","INCLINATION":"53.0533","GP_ID":"221235793","DECAY_DATE":null,"MEAN_MOTION":"15.06400323","MEAN_ELEMENT_THEORY":"SGP4","TLE_LINE1":"1 48092U 21027A   22356.90637393  .00004149  00000-0  29727-3 0  9991","EPOCH":"2022-12-22T21:45:10.707552","MEAN_ANOMALY":"259.9906","OBJECT_NAME":"STARLINK-2048","CLASSIFICATION_TYPE":"U","TIME_SYSTEM":"UTC","ELEMENT_SET_NO":"999","REF_FRAME":"TEME","OBJECT_ID":"2021-027A","BSTAR":"0.00029727000000","OBJECT_TYPE":"PAYLOAD","SITE":"AFETR","PERIOD":"95.592","TLE_LINE2":"2 48092  53.0533 321.7326 0001550 100.1258 259.9906 15.06400323 96690"},{"INCLINATION":"53.0556","MEAN_ELEMENT_THEORY":"SGP4","GP_ID":"221199661","DECAY_DATE":null,"MEAN_MOTION":"15.06403512","TLE_LINE1":"1 48093U 21027B   22356.47094759  .00000044  00000-0  21901-4 0  9994","MEAN_MOTION_DDOT":"0.0000000000000","EPHEMERIS_TYPE":"0","RCS_SIZE":"LARGE","PERIAPSIS":"545.550","CENTER_NAME":"EARTH","RA_OF_ASC_NODE":"28.6181","MEAN_MOTION_DOT":"0.00000044","NORAD_CAT_ID":"48093","SEMIMAJOR_AXIS":"6925.338","FILE":"3719197","REV_AT_EPOCH":"9572","LAUNCH_DATE":"2021-04-07","ECCENTRICITY":"0.00023870","COUNTRY_CODE":"US","ARG_OF_PERICENTER":"39.5690","APOAPSIS":"548.856","PERIOD":"95.592","TLE_LINE2":"2 48093  53.0556  28.6181 0002387  39.5690 320.5473 15.06403512 95722","SITE":"AFETR","OBJECT_TYPE":"PAYLOAD","BSTAR":"0.00002190100000","ELEMENT_SET_NO":"999","REF_FRAME":"TEME","OBJECT_ID":"2021-027B","MEAN_ANOMALY":"320.5473","TIME_SYSTEM":"UTC","CLASSIFICATION_TYPE":"U","OBJECT_NAME":"STARLINK-2404","EPOCH":"2022-12-22T11:18:09.871776"},{"RCS_SIZE":"LARGE","PERIAPSIS":"545.882","CENTER_NAME":"EARTH","RA_OF_ASC_NODE":"38.0365","EPHEMERIS_TYPE":"0","MEAN_MOTION_DDOT":"0.0000000000000","INCLINATION":"53.0548","GP_ID":"221234791","MEAN_MOTION":"15.06383155","DECAY_DATE":null,"MEAN_ELEMENT_THEORY":"SGP4","TLE_LINE1":"1 48094U 21027C   22356.55479190 -.00001774  00000-0 -10024-3 0  9996","ARG_OF_PERICENTER":"41.3274","APOAPSIS":"548.648","ECCENTRICITY":"0.00019970","COUNTRY_CODE":"US","NORAD_CAT_ID":"48094","MEAN_MOTION_DOT":"-0.00001774","SEMIMAJOR_AXIS":"6925.400","FILE":"3719655","REV_AT_EPOCH":"9560","LAUNCH_DATE":"2021-04-07","OBJECT_TYPE":"PAYLOAD","SITE":"AFETR","PERIOD":"95.593","TLE_LINE2":"2 48094  53.0548  38.0365 0001997  41.3274 318.7866 15.06383155 95600","EPOCH":"2022-12-22T13:18:54.020160","MEAN_ANOMALY":"318.7866","CLASSIFICATION_TYPE":"U","TIME_SYSTEM":"UTC","OBJECT_NAME":"STARLINK-2412","REF_FRAME":"TEME","ELEMENT_SET_NO":"999","OBJECT_ID":"2021-027C","BSTAR":"-0.00010024000000"},{"TLE_LINE2":"2 48095  53.0559  38.2866 0002376  37.4556 322.6598 15.06403834 95199","PERIOD":"95.592","OBJECT_TYPE":"PAYLOAD","SITE":"AFETR","OBJECT_ID":"2021-027D","REF_FRAME":"TEME","ELEMENT_SET_NO":"999","BSTAR":"0.00003166700000","EPOCH":"2022-12-22T11:53:57.615072","TIME_SYSTEM":"UTC","CLASSIFICATION_TYPE":"U","OBJECT_NAME":"STARLINK-2414","MEAN_ANOMALY":"322.6598","MEAN_MOTION_DDOT":"0.0000000000000","TLE_LINE1":"1 48095U 21027D   22356.49580573  .00000190  00000-0  31667-4 0  9994","INCLINATION":"53.0559","GP_ID":"221207375","DECAY_DATE":null,"MEAN_MOTION":"15.06403834","MEAN_ELEMENT_THEORY":"SGP4","RA_OF_ASC_NODE":"38.2866","RCS_SIZE":"MEDIUM","CENTER_NAME":"EARTH","PERIAPSIS":"545.556","EPHEMERIS_TYPE":"0","REV_AT_EPOCH":"9519","LAUNCH_DATE":"2021-04-07","NORAD_CAT_ID":"48095","MEAN_MOTION_DOT":"0.00000190","SEMIMAJOR_AXIS":"6925.337","FILE":"3719407","ARG_OF_PERICENTER":"37.4556","APOAPSIS":"548.847","COUNTRY_CODE":"US","ECCENTRICITY":"0.00023760"},{"BSTAR":"0.00017508000000","OBJECT_ID":"2021-027E","ELEMENT_SET_NO":"999","REF_FRAME":"TEME","OBJECT_NAME":"STARLINK-2417","CLASSIFICATION_TYPE":"U","TIME_SYSTEM":"UTC","MEAN_ANOMALY":"321.3398","EPOCH":"2022-12-22T14:27:53.516736","TLE_LINE2":"2 48096  53.0549  37.8104 0001818  38.7721 321.3398 15.06401536 95604","PERIOD":"95.592","SITE":"AFETR","OBJECT_TYPE":"PAYLOAD","LAUNCH_DATE":"2021-04-07","REV_AT_EPOCH":"9560","SEMIMAJOR_AXIS":"6925.344","FILE":"3719655","MEAN_MOTION_DOT":"0.00002327","NORAD_CAT_ID":"48096","COUNTRY_CODE":"US","ECCENTRICITY":"0.00018180","APOAPSIS":"548.468","ARG_OF_PERICENTER":"38.7721","TLE_LINE1":"1 48096U 21027E   22356.60270274  .00002327  00000-0  17508-3 0  9993","MEAN_ELEMENT_THEORY":"SGP4","GP_ID":"221235294","DECAY_DATE":null,"MEAN_MOTION":"15.06401536","INCLINATION":"53.0549","MEAN_MOTION_DDOT":"0.0000000000000","EPHEMERIS_TYPE":"0","RA_OF_ASC_NODE":"37.8104","CENTER_NAME":"EARTH","PERIAPSIS":"545.950","RCS_SIZE":"LARGE"},{"EPHEMERIS_TYPE":"0","PERIAPSIS":"546.028","CENTER_NAME":"EARTH","RCS_SIZE":"LARGE","RA_OF_ASC_NODE":"17.0243","MEAN_MOTION":"15.06404633","GP_ID":"221234042","DECAY_DATE":null,"MEAN_ELEMENT_THEORY":"SGP4","INCLINATION":"53.0502","TLE_LINE1":"1 48097U 21027F   22356.78148152  .00005576  00000-0  39287-3 0  9999","MEAN_MOTION_DDOT":"0.0000000000000","ECCENTRICITY":"0.00016920","COUNTRY_CODE":"US","APOAPSIS":"548.371","ARG_OF_PERICENTER":"83.3658","FILE":"3719655","SEMIMAJOR_AXIS":"6925.334","NORAD_CAT_ID":"48097","MEAN_MOTION_DOT":"0.00005576","LAUNCH_DATE":"2021-04-07","REV_AT_EPOCH":"9591","SITE":"AFETR","OBJECT_TYPE":"PAYLOAD","PERIOD":"95.592","TLE_LINE2":"2 48097  53.0502  17.0243 0001692  83.3658 276.7524 15.06404633 95912","MEAN_ANOMALY":"276.7524","TIME_SYSTEM":"UTC","CLASSIFICATION_TYPE":"U","OBJECT_NAME":"STARLINK-2418","EPOCH":"2022-12-22T18:45:20.003328","BSTAR":"0.00039287000000","REF_FRAME":"TEME","ELEMENT_SET_NO":"999","OBJECT_ID":"2021-027F"},{"OBJECT_ID":"2021-027G","ELEMENT_SET_NO":"999","REF_FRAME":"TEME","BSTAR":"-0.00002127300000","EPOCH":"2022-12-22T11:49:58.988640","TIME_SYSTEM":"UTC","CLASSIFICATION_TYPE":"U","OBJECT_NAME":"STARLINK-2421","MEAN_ANOMALY":"314.6858","TLE_LINE2":"2 48098  53.0561  28.3032 0002004  45.4294 314.6858 15.06398648 95721","PERIOD":"95.592","OBJECT_TYPE":"PAYLOAD","SITE":"AFETR","REV_AT_EPOCH":"9572","LAUNCH_DATE":"2021-04-07","MEAN_MOTION_DOT":"-0.00000599","NORAD_CAT_ID":"48098","SEMIMAJOR_AXIS":"6925.353","FILE":"3719197","ARG_OF_PERICENTER":"45.4294","APOAPSIS":"548.606","COUNTRY_CODE":"US","ECCENTRICITY":"0.00020040","MEAN_MOTION_DDOT":"0.0000000000000","TLE_LINE1":"1 48098U 21027G   22356.49304385 -.00000599  00000-0 -21273-4 0  9999","INCLINATION":"53.0561","MEAN_ELEMENT_THEORY":"SGP4","GP_ID":"221198414","DECAY_DATE":null,"MEAN_MOTION":"15.06398648","RA_OF_ASC_NODE":"28.3032","RCS_SIZE":"LARGE","CENTER_NAME":"EARTH","PERIAPSIS":"545.830","EPHEMERIS_TYPE":"0"}];
